{"type": "FeatureCollection", "features": [ {"type": "Feature", "properties": {"norad_id": 44476, "name": "INTELSAT 39 (IS-39)", "group": "intelsat", "lat": 0.03186765870187375, "lon": 34.77884185003706, "alt_km": 35788.56729904361, "timestamp": "2025-12-09T16:56:36.248310+00:00", "meta": {"OBJECT_NAME": "INTELSAT 39 (IS-39)", "OBJECT_ID": "2019-049B", "EPOCH": "2025-12-09T10:26:40.662240", "MEAN_MOTION": 1.00270066, "ECCENTRICITY": 0.0001022, "INCLINATION": 0.0161, "RA_OF_ASC_NODE": 318.1263, "ARG_OF_PERICENTER": 194.8916, "MEAN_ANOMALY": 144.0277, "EPHEMERIS_TYPE": 0, "CLASSIFICATION_TYPE": "U", "NORAD_CAT_ID": 44476, "ELEMENT_SET_NO": 999, "REV_AT_EPOCH": 2322, "BSTAR": 0, "MEAN_MOTION_DOT": 3.6e-07, "MEAN_MOTION_DDOT": 0}, "tle": {"line1": "1 44476U 19049B   25343.43519285  .00000036  00000+0  00000+0 0  9999", "line2": "2 44476   0.0161 318.1263 0001022 194.8916 144.0277  1.00270066 23228"}}, "geometry": {"type": "Point", "coordinates": [34.77884185003706, 0.03186765870187375]}}, {"type": "Feature", "properties": {"norad_id": 46114, "name": "GALAXY 30 (G-30)", "group": "intelsat", "lat": -0.01919713734012651, "lon": -152.18453898432517, "alt_km": 35779.6300607542, "timestamp": "2025-12-09T16:56:36.248322+00:00", "meta": {"OBJECT_NAME": "GALAXY 30 (G-30)", "OBJECT_ID": "2020-056C", "EPOCH": "2025-12-09T09:54:15.136416", "MEAN_MOTION": 1.00271447, "ECCENTRICITY": 0.0002386, "INCLINATION": 0.0167, "RA_OF_ASC_NODE": 3.1394, "ARG_OF_PERICENTER": 254.3856, "MEAN_ANOMALY": 204.4379, "EPHEMERIS_TYPE": 0, "CLASSIFICATION_TYPE": "U", "NORAD_CAT_ID": 46114, "ELEMENT_SET_NO": 999, "REV_AT_EPOCH": 1939, "BSTAR": 0, "MEAN_MOTION_DOT": 3.9e-07, "MEAN_MOTION_DDOT": 0}, "tle": {"line1": "1 46114U 20056C   25343.41267519  .00000039  00000+0  00000+0 0  9991", "line2": "2 46114   0.0167   3.1394 0002386 254.3856 204.4379  1.00271447 19391"}}, "geometry": {"type": "Point", "coordinates": [-152.18453898432517, -0.01919713734012651]}}, {"type": "Feature", "properties": {"norad_id": 54026, "name": "GALAXY 33 (G-33)", "group": "intelsat", "lat": -0.02555323697378539, "lon": -160.1754219116752, "alt_km": 35779.881079317885, "timestamp": "2025-12-09T16:56:36.248334+00:00", "meta": {"OBJECT_NAME": "GALAXY 33 (G-33)", "OBJECT_ID": "2022-128A", "EPOCH": "2025-12-09T12:02:03.514848", "MEAN_MOTION": 1.00272257, "ECCENTRICITY": 0.0002229, "INCLINATION": 0.0135, "RA_OF_ASC_NODE": 306.5722, "ARG_OF_PERICENTER": 303.2517, "MEAN_ANOMALY": 236.1853, "EPHEMERIS_TYPE": 0, "CLASSIFICATION_TYPE": "U", "NORAD_CAT_ID": 54026, "ELEMENT_SET_NO": 999, "REV_AT_EPOCH": 1184, "BSTAR": 0, "MEAN_MOTION_DOT": 8.1e-07, "MEAN_MOTION_DDOT": 0}, "tle": {"line1": "1 54026U 22128A   25343.50142957  .00000081  00000+0  00000+0 0  9999", "line2": "2 54026   0.0135 306.5722 0002229 303.2517 236.1853  1.00272257 11847"}}, "geometry": {"type": "Point", "coordinates": [-160.1754219116752, -0.02555323697378539]}}, {"type": "Feature", "properties": {"norad_id": 54027, "name": "GALAXY 34 (G-34)", "group": "intelsat", "lat": -0.036016579133086236, "lon": -156.1014971201198, "alt_km": 35782.55462996133, "timestamp": "2025-12-09T16:56:36.248346+00:00", "meta": {"OBJECT_NAME": "GALAXY 34 (G-34)", "OBJECT_ID": "2022-128B", "EPOCH": "2025-12-09T12:03:30.798720", "MEAN_MOTION": 1.00270489, "ECCENTRICITY": 0.0001277, "INCLINATION": 0.0251, "RA_OF_ASC_NODE": 323.7611, "ARG_OF_PERICENTER": 284.1418, "MEAN_ANOMALY": 242.5368, "EPHEMERIS_TYPE": 0, "CLASSIFICATION_TYPE": "U", "NORAD_CAT_ID": 54027, "ELEMENT_SET_NO": 999, "REV_AT_EPOCH": 1201, "BSTAR": 0, "MEAN_MOTION_DOT": 0, "MEAN_MOTION_DDOT": 0}, "tle": {"line1": "1 54027U 22128B   25343.50243980  .00000000  00000+0  00000+0 0  9999", "line2": "2 54027   0.0251 323.7611 0001277 284.1418 242.5368  1.00270489 12011"}}, "geometry": {"type": "Point", "coordinates": [-156.1014971201198, -0.036016579133086236]}}, {"type": "Feature", "properties": {"norad_id": 54243, "name": "GALAXY 31 (G-31)", "group": "intelsat", "lat": -0.020193182067991335, "lon": -148.17365166056334, "alt_km": 35781.816951250614, "timestamp": "2025-12-09T16:56:36.248357+00:00", "meta": {"OBJECT_NAME": "GALAXY 31 (G-31)", "OBJECT_ID": "2022-153A", "EPOCH": "2025-12-09T12:40:55.450848", "MEAN_MOTION": 1.00271959, "ECCENTRICITY": 0.0001903, "INCLINATION": 0.0189, "RA_OF_ASC_NODE": 256.7344, "ARG_OF_PERICENTER": 13.663, "MEAN_ANOMALY": 237.3558, "EPHEMERIS_TYPE": 0, "CLASSIFICATION_TYPE": "U", "NORAD_CAT_ID": 54243, "ELEMENT_SET_NO": 999, "REV_AT_EPOCH": 523, "BSTAR": 0, "MEAN_MOTION_DOT": 1.5e-07, "MEAN_MOTION_DDOT": 0}, "tle": {"line1": "1 54243U 22153A   25343.52841957  .00000015  00000+0  00000+0 0  9993", "line2": "2 54243   0.0189 256.7344 0001903  13.6630 237.3558  1.00271959  5238"}}, "geometry": {"type": "Point", "coordinates": [-148.17365166056334, -0.020193182067991335]}}, {"type": "Feature", "properties": {"norad_id": 54244, "name": "GALAXY 32 (G-32)", "group": "intelsat", "lat": -0.02859818174217876, "lon": -118.1923278099605, "alt_km": 35781.97491863351, "timestamp": "2025-12-09T16:56:36.248369+00:00", "meta": {"OBJECT_NAME": "GALAXY 32 (G-32)", "OBJECT_ID": "2022-153B", "EPOCH": "2025-12-09T12:24:44.332128", "MEAN_MOTION": 1.00270521, "ECCENTRICITY": 0.0002724, "INCLINATION": 0.0086, "RA_OF_ASC_NODE": 338.62, "ARG_OF_PERICENTER": 330.4778, "MEAN_ANOMALY": 224.5904, "EPHEMERIS_TYPE": 0, "CLASSIFICATION_TYPE": "U", "NORAD_CAT_ID": 54244, "ELEMENT_SET_NO": 999, "REV_AT_EPOCH": 1124, "BSTAR": 0, "MEAN_MOTION_DOT": -1.72e-06, "MEAN_MOTION_DDOT": 0}, "tle": {"line1": "1 54244U 22153B   25343.51717977 -.00000172  00000+0  00000+0 0  9992", "line2": "2 54244   0.0086 338.6200 0002724 330.4778 224.5904  1.00270521 11246"}}, "geometry": {"type": "Point", "coordinates": [-118.1923278099605, -0.02859818174217876]}}, {"type": "Feature", "properties": {"norad_id": 54741, "name": "GALAXY 35 (G-35)", "group": "intelsat", "lat": -0.00815151229737749, "lon": -120.26085811927258, "alt_km": 35776.1801748499, "timestamp": "2025-12-09T16:56:36.248381+00:00", "meta": {"OBJECT_NAME": "GALAXY 35 (G-35)", "OBJECT_ID": "2022-170A", "EPOCH": "2025-12-09T12:23:46.557312", "MEAN_MOTION": 1.00271041, "ECCENTRICITY": 0.0002644, "INCLINATION": 0.0265, "RA_OF_ASC_NODE": 90.9094, "ARG_OF_PERICENTER": 174.1639, "MEAN_ANOMALY": 266.2888, "EPHEMERIS_TYPE": 0, "CLASSIFICATION_TYPE": "U", "NORAD_CAT_ID": 54741, "ELEMENT_SET_NO": 999, "REV_AT_EPOCH": 1099, "BSTAR": 0, "MEAN_MOTION_DOT": -1.6e-06, "MEAN_MOTION_DDOT": 0}, "tle": {"line1": "1 54741U 22170A   25343.51651108 -.00000160  00000+0  00000+0 0  9993", "line2": "2 54741   0.0265  90.9094 0002644 174.1639 266.2888  1.00271041 10999"}}, "geometry": {"type": "Point", "coordinates": [-120.26085811927258, -0.00815151229737749]}}, {"type": "Feature", "properties": {"norad_id": 54742, "name": "GALAXY 36 (G-36)", "group": "intelsat", "lat": -0.0196740269533691, "lon": -116.16812143813173, "alt_km": 35784.581740662856, "timestamp": "2025-12-09T16:56:36.248392+00:00", "meta": {"OBJECT_NAME": "GALAXY 36 (G-36)", "OBJECT_ID": "2022-170B", "EPOCH": "2025-12-09T12:25:42.117312", "MEAN_MOTION": 1.00270711, "ECCENTRICITY": 5.69e-05, "INCLINATION": 0.009, "RA_OF_ASC_NODE": 28.1287, "ARG_OF_PERICENTER": 256.8245, "MEAN_ANOMALY": 250.976, "EPHEMERIS_TYPE": 0, "CLASSIFICATION_TYPE": "U", "NORAD_CAT_ID": 54742, "ELEMENT_SET_NO": 999, "REV_AT_EPOCH": 1087, "BSTAR": 0, "MEAN_MOTION_DOT": -1.83e-06, "MEAN_MOTION_DDOT": 0}, "tle": {"line1": "1 54742U 22170B   25343.51784858 -.00000183  00000+0  00000+0 0  9998", "line2": "2 54742   0.0090  28.1287 0000569 256.8245 250.9760  1.00270711 10877"}}, "geometry": {"type": "Point", "coordinates": [-116.16812143813173, -0.0196740269533691]}}, {"type": "Feature", "properties": {"norad_id": 57493, "name": "GALAXY 37 (G-37)", "group": "intelsat", "lat": -0.021309939402291134, "lon": -154.17904710286493, "alt_km": 35780.89983397097, "timestamp": "2025-12-09T16:56:36.248404+00:00", "meta": {"OBJECT_NAME": "GALAXY 37 (G-37)", "OBJECT_ID": "2023-112A", "EPOCH": "2025-12-09T12:05:36.807936", "MEAN_MOTION": 1.00271664, "ECCENTRICITY": 0.0002331, "INCLINATION": 0.0107, "RA_OF_ASC_NODE": 342.8709, "ARG_OF_PERICENTER": 281.1569, "MEAN_ANOMALY": 228.8725, "EPHEMERIS_TYPE": 0, "CLASSIFICATION_TYPE": "U", "NORAD_CAT_ID": 57493, "ELEMENT_SET_NO": 999, "REV_AT_EPOCH": 864, "BSTAR": 0, "MEAN_MOTION_DOT": 5e-07, "MEAN_MOTION_DDOT": 0}, "tle": {"line1": "1 57493U 23112A   25343.50389824  .00000050  00000+0  00000+0 0  9996", "line2": "2 57493   0.0107 342.8709 0002331 281.1569 228.8725  1.00271664  8641"}}, "geometry": {"type": "Point", "coordinates": [-154.17904710286493, -0.021309939402291134]}}]}